GALAXY 11 (G-11)        
1 26038U 99071A   24362.53024844 -.00000136  00000+0  00000+0 0  9991
2 26038   5.3752  77.0254 0003703 260.9520 311.5258  0.99038558 91692
INTELSAT 9 (IS-9)       
1 26451U 00043A   24361.75691354  .00000006  00000+0  00000+0 0  9995
2 26451   9.2060  54.0250 0003007 219.5166 160.9310  1.00273941 38753
INTELSAT 1R (IS-1R)     
1 26608U 00072A   24362.59207880 -.00000236  00000+0  00000+0 0  9997
2 26608   6.7359  70.6318 0008917 225.1279 174.0639  0.98975991 35928
INTELSAT 10 (IS-10)     
1 26766U 01019A   24361.75691354  .00000013  00000+0  00000+0 0  9996
2 26766   7.7862  64.7404 0004189 216.8632 152.7157  1.00273101 40236
INTELSAT 901 (IS-901)   
1 26824U 01024A   24361.21924704 -.00000173  00000+0  00000+0 0  9994
2 26824   0.0280  80.9240 0001659 244.8302 180.8838  1.00272223 17598
INTELSAT 902 (IS-902)   
1 26900U 01039A   24362.51990965 -.00000258  00000+0  00000+0 0  9995
2 26900   4.7555  78.3319 0005161 201.1578 314.0727  1.00270219 85316
INTELSAT 904 (IS-904)   
1 27380U 02007A   24362.45257722 -.00000191  00000+0  00000+0 0  9990
2 27380   5.5697  75.5972 0002832 208.3881 305.8686  1.00271899 46388
DIRECTV 5 (TEMPO 1)     
1 27426U 02023A   24362.43651194 -.00000030  00000+0  00000+0 0  9990
2 27426   3.4998  82.0470 0003104 196.0173 225.3651  1.00271662 82742
INTELSAT 905 (IS-905)   
1 27438U 02027A   24362.45353291 -.00000161  00000+0  00000+0 0  9991
2 27438   5.3964  76.2355 0002557 208.6907 310.2866  1.00271732 45987
GALAXY 3C (G-3C)        
1 27445U 02030A   24362.51104785 -.00000125  00000+0  00000+0 0  9992
2 27445   2.3565  84.8832 0002708  62.6728  38.0418  1.00271661 41111
INTELSAT 906 (IS-906)   
1 27513U 02041A   24362.39967458  .00000038  00000+0  00000+0 0  9992
2 27513   4.4330  79.5475 0006616 188.2705  36.5498  1.00272169 81643
GALAXY 23 (G-23)        
1 27854U 03034A   24362.50583500  .00000040  00000+0  00000+0 0  9991
2 27854   1.8076  86.4983 0002877 190.1538 241.0304  1.00271076 78361
GALAXY 13 (HORIZONS-1)  
1 27954U 03044A   24362.54563152  .00000162  00000+0  00000+0 0  9993
2 27954   0.0372  95.5509 0001494  93.5652 313.8136  1.00269506 41191
INTELSAT 10-02          
1 28358U 04022A   24362.47480066  .00000018  00000+0  00000+0 0  9993
2 28358   0.0234  19.1190 0001165 310.6442 296.6435  1.00269159 75179
XM-3 (RHYTHM)           
1 28626U 05008A   24362.37004830 -.00000175  00000+0  00000+0 0  9991
2 28626   0.0149   0.6183 0004307 223.4509 280.3282  1.00267865 37243
DIRECTV 8               
1 28659U 05019A   24361.64874206  .00000030  00000+0  00000+0 0  9999
2 28659   0.0123  50.4719 0002828 231.8250 287.8382  1.00270979 71680
GALAXY 28 (G-28)        
1 28702U 05022A   24362.51217728 -.00000157  00000+0  00000+0 0  9990
2 28702   1.9124  85.6438 0006963 191.2704 274.9302  1.00271373 46607
GALAXY 14 (G-14)        
1 28790U 05030A   24362.53042220 -.00000134  00000+0  00000+0 0  9996
2 28790   3.6361  81.4636 0000923 193.8274  15.2020  0.98946135 70915
SPACEWAY 2              
1 28903U 05046B   24362.18768601  .00000080  00000+0  00000+0 0  9997
2 28903   4.0916  77.9251 0002105  74.4832  87.3751  0.99059607 45950
GALAXY 16 (G-16)        
1 29236U 06023A   24362.60777190 -.00000097  00000+0  00000+0 0  9992
2 29236   0.0137  34.5361 0002538 257.1385 284.6823  1.00270010 67597
DIRECTV 9S              
1 29494U 06043A   24362.50974463 -.00000084  00000+0  00000+0 0  9997
2 29494   1.0313  87.4843 0002894 195.6980 255.5968  1.00271506 46005
GALAXY 17 (G-17)        
1 31307U 07016B   24362.51295920 -.00000178  00000+0  00000+0 0  9993
2 31307   1.6077  86.8214 0007127 209.2773 260.0508  1.00270018 64429
DIRECTV 10              
1 31862U 07032A   24362.38507362 -.00000074  00000+0  00000+0 0  9993
2 31862   0.0146 196.1282 0000332 131.5611 164.5095  1.00272543 40219
INTELSAT 11 (IS-11)     
1 32253U 07044B   24362.44979705 -.00000241  00000+0  00000+0 0  9998
2 32253   2.1652  85.3620 0004056 206.0744 283.8986  1.00272574 63118
HORIZONS-2              
1 32388U 07063B   24362.51521810 -.00000225  00000+0  00000+0 0  9998
2 32388   1.2130  87.3518 0001781 195.9029 284.9180  1.00270544 62437
DIRECTV 11              
1 32729U 08013A   24362.36726812 -.00000096  00000+0  00000+0 0  9991
2 32729   0.0188 184.0814 0000170  40.4181 264.8716  1.00270355 40218
GALAXY 18 (G-18)        
1 32951U 08024A   24362.50540059  .00000055  00000+0  00000+0 0  9997
2 32951   0.0121   9.8962 0002756 268.8483 236.6640  1.00271320 40477
INTELSAT 25 (IS-25)     
1 33153U 08034A   24362.45214282 -.00000195  00000+0  00000+0 0  9999
2 33153   1.3198  87.0229 0002960 196.9099 303.7654  1.00272174 60319
GALAXY 19 (G-19)        
1 33376U 08045A   24362.60708615 -.00000110  00000+0  00000+0 0  9990
2 33376   0.0156 303.0646 0002579 331.4162 303.6410  1.00271918 59528
FM-5                    
1 35493U 09034A   24362.36978767 -.00000170  00000+0  00000+0 0  9997
2 35493   0.0187 348.2609 0001384 167.1409 347.9155  1.00270288 41263
INTELSAT 14 (IS-14)     
1 36097U 09064A   24362.52086534 -.00000244  00000+0  00000+0 0  9993
2 36097   0.0123  33.0039 0002266 242.5027 323.5004  1.00272907 55228
INTELSAT 15 (IS-15)     
1 36106U 09067A   24362.60326993 -.00000156  00000+0  00000+0 0  9994
2 36106   0.0180 345.9127 0002124 299.9726 113.0133  1.00272916 35841
DIRECTV 12              
1 36131U 09075A   24362.40743833 -.00000074  00000+0  00000+0 0  9994
2 36131   0.0225 183.7826 0000616 159.6383 156.9095  1.00270725 41170
INTELSAT 16 (IS-16)     
1 36397U 10006A   24362.22886740 -.00000215  00000+0  00000+0 0  9996
2 36397   0.0125  35.1554 0001982 243.7477 183.4974  1.00272411 54277
XM-5                    
1 37185U 10053A   24362.41299549  .00000006  00000+0  00000+0 0  9997
2 37185   0.0181   5.1287 0000869 144.4990 340.2480  1.00271767 52103
INTELSAT 17 (IS-17)     
1 37238U 10065B   24362.47151719  .00000028  00000+0  00000+0 0  9995
2 37238   0.0346  67.4898 0002565 222.1772  42.5144  1.00270264 47857
INTELSAT 28 (IS-28)     
1 37392U 11016A   24362.58591000  .00000138  00000+0  00000+0 0  9998
2 37392   0.4150  90.0421 0004123 183.2018  54.7325  1.00131545 47901
INTELSAT 18 (IS-18)     
1 37834U 11056A   24362.56552194  .00000082  00000+0  00000+0 0  9990
2 37834   0.0012 355.0638 0001161 268.9973 216.0589  1.00271770 48438
INTELSAT 22 (IS-22)     
1 38098U 12011A   24362.47273351 -.00000029  00000+0  00000+0 0  9992
2 38098   0.0430  61.8891 0001876 214.3872  62.4530  1.00269886  1808
INTELSAT 19 (IS-19)     
1 38356U 12030A   24362.57375741 -.00000027  00000+0  00000+0 0  9995
2 38356   0.0100   4.7434 0002826 275.9862 188.3719  1.00272199 45060
INTELSAT 20 (IS-20)     
1 38740U 12043A   24362.44493749  .00000005  00000+0  00000+0 0  9996
2 38740   0.0108  58.3999 0002997 122.7692 143.9165  1.00270328 45362
INTELSAT 21 (IS-21)     
1 38749U 12045A   24362.54007840 -.00000255  00000+0  00000+0 0  9999
2 38749   0.0360 281.6205 0001633 346.4326 324.8801  1.00272944 45146
INTELSAT 23 (IS-23)     
1 38867U 12057A   24362.27202329 -.00000255  00000+0  00000+0 0  9992
2 38867   0.0435 220.4092 0000883 191.4560  89.3268  1.00272624 44569
FM-6                    
1 39360U 13058A   24362.36785603  .00000013  00000+0  00000+0 0  9995
2 39360   0.0351  48.4875 0000341 155.9750 268.1279  1.00272263 40684
INTELSAT 30 (IS-30)     
1 40271U 14062A   24362.22671120 -.00000121  00000+0  00000+0 0  9998
2 40271   0.0127  27.4268 0001352 357.5230  57.8133  1.00269865  1400
DIRECTV 14              
1 40333U 14078B   24362.50991838 -.00000096  00000+0  00000+0 0  9997
2 40333   0.0192 322.3176 0000371 176.2701  42.2423  1.00270559 36674
DIRECTV 15              
1 40663U 15026A   24361.64815887 -.00000073  00000+0  00000+0 0  9995
2 40663   0.0133  43.7914 0000560 108.0265  74.2749  1.00269144 35074
SKY MEXICO-1            
1 40664U 15026B   24361.29939527 -.00000206  00000+0  00000+0 0  9993
2 40664   0.0249 342.4961 0002413 309.0215 192.7830  1.00270877 35062
INTELSAT 34 (IS-34)     
1 40874U 15039A   24362.27202329 -.00000256  00000+0  00000+0 0  9997
2 40874   0.0180  14.9423 0000289 127.8514 355.8821  1.00270337 34242
INTELSAT 31 (IS-31)     
1 41581U 16035A   24361.31994000 -.00000122  00000+0  00000+0 0  9990
2 41581   0.0174  45.2566 0001972 124.2836 305.8841  1.00272028 31292
INTELSAT 36 (IS-36)     
1 41747U 16053A   24362.47195159  .00000004  00000+0  00000+0 0  9998
2 41747   0.0114  16.6264 0001472 329.9520 348.2779  1.00273106 30564
INTELSAT 32E (IS-32E)   
1 41945U 17007B   24361.08451973 -.00000241  00000+0  00000+0 0  9997
2 41945   0.0133  54.5785 0000506  66.4696 321.2637  1.00269601 28823
INTELSAT 35E (IS-35E)   
1 42818U 17041A   24362.52897005 -.00000208  00000+0  00000+0 0  9998
2 42818   0.0160  42.8964 0002192 245.3221 324.2222  1.00271296 27439
INTELSAT 37E (IS-37E)   
1 42950U 17059A   24362.48590965 -.00000111  00000+0  00000+0 0  9997
2 42950   0.0178  31.5264 0002717 236.8680 344.9889  1.00271375 26682
AZERSPACE 2 (IS-38)     
1 43632U 18074A   24361.42479869  .00000165  00000+0  00000+0 0  9993
2 43632   0.0185  14.9608 0001799 293.3991 345.0855  1.00272267 23051
HORIZONS-3E             
1 43633U 18074B   24361.56088619 -.00000001  00000+0  00000+0 0  9998
2 43633   0.0461 193.3496 0001258  70.8824 202.2252  1.00271904 22937
AT&T T-16               
1 44333U 19034A   24361.46333177 -.00000087  00000+0  00000+0 0  9998
2 44333   0.0189  16.3648 0001355 117.0464  27.9711  1.00272840 20230
INTELSAT 39 (IS-39)     
1 44476U 19049B   24361.47028939  .00000062  00000+0  00000+0 0  9992
2 44476   0.0154 347.9354 0000724 149.4481 189.3221  1.00271346 19736
GALAXY 30 (G-30)        
1 46114U 20056C   24361.37896639  .00000066  00000+0  00000+0 0  9996
2 46114   0.0119  48.3595 0001982 227.6741 190.7464  1.00272810 15909
GALAXY 33 (G-33)        
1 54026U 22128A   24362.62090611  .00000108  00000+0  00000+0 0  9991
2 54026   0.0184   0.3170 0001656 275.1418 271.6541  1.00271384  8368
GALAXY 34 (G-34)        
1 54027U 22128B   24362.48313215  .00000088  00000+0  00000+0 0  9991
2 54027   0.0238  16.1482 0001394 257.2148 228.0693  1.00268761  8538
GALAXY 31 (G-31)        
1 54243U 22153A   24362.43433991  .00000043  00000+0  00000+0 0  9999
2 54243   0.0196   7.9115 0001181 277.8053 206.0429  1.00270602  1756
GALAXY 32 (G-32)        
1 54244U 22153B   24362.22591344 -.00000145  00000+0  00000+0 0  9998
2 54244   0.0126   8.2569 0002012 315.9927 122.2774  1.00271468  7765
GALAXY 35 (G-35)        
1 54741U 22170A   24362.43990028 -.00000132  00000+0  00000+0 0  9990
2 54741   0.0222  11.4684 0001855 268.0525 242.1456  1.00269810  7514
GALAXY 36 (G-36)        
1 54742U 22170B   24362.55674455 -.00000156  00000+0  00000+0 0  9993
2 54742   0.0162  74.6378 0000895 346.4947 146.8280  1.00272239  7391
GALAXY 37 (G-37)        
1 57493U 23112A   24360.59355111  .00000075  00000+0  00000+0 0  9992
2 57493   0.0093 354.8239 0002024 284.7173 261.7376  1.00273430  5148
